H1 CPF 01  gfz 2022 11 16 13  8202 terrasarx 
H2 0702601  6201 31698    2022 11 16 12 59 42 2022 11 21 00 00 42   120 1 1  0 0 0
H9
10 0 59900  76302.000000  0   -1348885.514   2676757.104  -6209213.907
10 0 59900  76422.000000  0    -725496.660   2084455.399  -6532202.917
10 0 59900  76542.000000  0    -100313.122   1445115.017  -6741211.254
10 0 59900  76662.000000  0     515107.360    769893.501  -6832642.765
10 0 59900  76782.000000  0    1109584.851     70755.868  -6804926.339
10 0 59900  76902.000000  0    1672516.444   -639733.606  -6658539.829
10 0 59900  77022.000000  0    2194060.342  -1348631.647  -6396001.357
10 0 59900  77142.000000  0    2665304.721  -2042845.635  -6021831.016
10 0 59900  77262.000000  0    3078418.817  -2709369.584  -5542481.834
10 0 59900  77382.000000  0    3426785.321  -3335526.292  -4966240.869
10 0 59900  77502.000000  0    3705109.951  -3909209.601  -4303095.173
10 0 59900  77622.000000  0    3909504.732  -4419119.453  -3564568.606
10 0 59900  77742.000000  0    4037546.364  -4854988.490  -2763531.470
10 0 59900  77862.000000  0    4088307.565  -5207795.495  -1913982.337
10 0 59900  77982.000000  0    4062357.420  -5469959.170  -1030804.363
10 0 59900  78102.000000  0    3961731.814  -5635505.896   -129502.182
10 0 59900  78222.000000  0    3789873.364  -5700207.849    774076.180
10 0 59900  78342.000000  0    3551542.607  -5661687.407   1664025.624
10 0 59900  78462.000000  0    3252702.280  -5519483.768   2524674.146
10 0 59900  78582.000000  0    2900376.108  -5275079.907   3340866.746
10 0 59900  78702.000000  0    2502488.278  -4931891.399   4098238.596
10 0 59900  78822.000000  0    2067687.566  -4495216.046   4783472.194
10 0 59900  78942.000000  0    1605159.513  -3972145.987   5384533.141
10 0 59900  79062.000000  0    1124432.230  -3371445.005   5890880.669
10 0 59900  79182.000000  0     635178.566  -2703393.208   6293648.533
10 0 59900  79302.000000  0     147021.051  -1979604.772   6585793.275
10 0 59900  79422.000000  0    -330656.480  -1212822.295   6762210.422
10 0 59900  79542.000000  0    -788887.930   -416690.869   6819819.447
10 0 59900  79662.000000  0   -1219292.114    394485.956   6757614.388
10 0 59900  79782.000000  0   -1614225.541   1206002.853   6576679.983
10 0 59900  79902.000000  0   -1966917.850   2003018.354   6280173.769
10 0 59900  80022.000000  0   -2271588.588   2770825.651   5873274.551
10 0 59900  80142.000000  0   -2523542.764   3495124.804   5363097.199
10 0 59900  80262.000000  0   -2719244.645   4162291.628   4758575.201
10 0 59900  80382.000000  0   -2856368.580   4759639.449   4070310.286
10 0 59900  80502.000000  0   -2933824.516   5275667.615   3310390.511
10 0 59900  80622.000000  0   -2951757.667   5700291.004   2492178.905
10 0 59900  80742.000000  0   -2911522.408   6025044.431   1630076.998
10 0 59900  80862.000000  0   -2815630.834   6243257.784    739267.440
10 0 59900  80982.000000  0   -2667676.614   6350197.586   -164559.645
10 0 59900  81102.000000  0   -2472236.734   6343170.800  -1065491.506
10 0 59900  81222.000000  0   -2234753.289   6221587.633  -1947683.897
10 0 59900  81342.000000  0   -1961396.161   5986977.833  -2795650.136
10 0 59900  81462.000000  0   -1658912.653   5642964.451  -3594536.475
10 0 59900  81582.000000  0   -1334469.418   5195198.752  -4330383.501
10 0 59900  81702.000000  0    -995489.493   4651255.436  -4990367.898
10 0 59900  81822.000000  0    -649488.599   4020493.924  -5563019.769
10 0 59900  81942.000000  0    -303913.689   3313888.041  -6038414.571
10 0 59900  82062.000000  0      34012.817   2543826.667  -6408335.269
10 0 59900  82182.000000  0     357438.889   1723891.782  -6666401.982
10 0 59900  82302.000000  0     660016.752    868619.268  -6808172.015
10 0 59900  82422.000000  0     936023.485     -6756.214  -6831208.378
10 0 59900  82542.000000  0    1180465.893   -886567.838  -6735116.789
10 0 59900  82662.000000  0    1389168.085  -1754990.423  -6521550.053
10 0 59900  82782.000000  0    1558841.250  -2596316.925  -6194182.646
10 0 59900  82902.000000  0    1687135.614  -3395236.339  -5758655.849
10 0 59900  83022.000000  0    1772672.299  -4137111.354  -5222491.540
10 0 59900  83142.000000  0    1815055.040  -4808247.881  -4594971.732
10 0 59900  83262.000000  0    1814861.834  -5396150.630  -3886988.849
10 0 59900  83382.000000  0    1773615.969  -5889763.975  -3110867.199
10 0 59900  83502.000000  0    1693735.770  -6279690.678  -2280155.307
10 0 59900  83622.000000  0    1578465.266  -6558382.107  -1409392.162
10 0 59900  83742.000000  0    1431786.771  -6720295.355   -513852.612
10 0 59900  83862.000000  0    1258316.543  -6762014.124    390725.383
10 0 59900  83982.000000  0    1063187.291  -6682325.646   1288424.030
10 0 59900  84102.000000  0     851918.435  -6482256.006   2163434.599
10 0 59900  84222.000000  0     630279.865  -6165058.080   3000346.191
10 0 59900  84342.000000  0     404150.068  -5736153.675   3784425.073
10 0 59900  84462.000000  0     179373.553  -5203033.423   4501878.535
10 0 59900  84582.000000  0     -38378.104  -4575117.266   5140100.142
10 0 59900  84702.000000  0    -243738.906  -3863577.731   5687890.928
10 0 59900  84822.000000  0    -431770.975  -3081131.302   6135653.562
10 0 59900  84942.000000  0    -598075.268  -2241801.697   6475554.501
10 0 59900  85062.000000  0    -738888.095  -1360663.948   6701653.189
10 0 59900  85182.000000  0    -851161.552   -453571.937   6810000.867
10 0 59900  85302.000000  0    -932627.077    463128.141   6798706.275
10 0 59900  85422.000000  0    -981840.346   1372892.390   6667966.476
10 0 59900  85542.000000  0    -998206.404   2259277.167   6420063.402
10 0 59900  85662.000000  0    -981985.569   3106235.821   6059326.559
10 0 59900  85782.000000  0    -934280.275   3898410.322   5592062.206
10 0 59900  85902.000000  0    -857002.135   4621412.717   5026448.500
10 0 59900  86022.000000  0    -752820.621   5262092.174   4372399.090
10 0 59900  86142.000000  0    -625093.790   5808782.764   3641393.151
10 0 59900  86262.000000  0    -477782.338   6251523.457   2846278.030
10 0 59900  86382.000000  0    -315350.404   6582253.121   2001044.688
10 0 59901    102.000000  0    -142651.721   6794966.504   1120575.520
10 0 59901    222.000000  0      35194.070   6885829.507    220376.780
10 0 59901    342.000000  0     212931.501   6853252.694   -683701.994
10 0 59901    462.000000  0     385303.347   6697919.295  -1575756.948
10 0 59901    582.000000  0     547182.957   6422765.380  -2440118.244
10 0 59901    702.000000  0     693702.610   6032916.340  -3261631.007
10 0 59901    822.000000  0     820375.872   5535581.372  -4025924.439
10 0 59901    942.000000  0     923210.316   4939908.102  -4719663.570
10 0 59901   1062.000000  0     998808.059   4256801.801  -5330778.253
10 0 59901   1182.000000  0    1044451.871   3498714.804  -5848665.750
10 0 59901   1302.000000  0    1058174.600   2679411.190  -6264365.431
10 0 59901   1422.000000  0    1038811.427   1813711.224  -6570702.159
10 0 59901   1542.000000  0     986033.915    917223.094  -6762398.466
10 0 59901   1662.000000  0     900365.487      6064.279  -6836156.869
10 0 59901   1782.000000  0     783178.527   -903423.451  -6790710.191
10 0 59901   1902.000000  0     636672.325  -1794960.417  -6626839.365
10 0 59901   2022.000000  0     463833.466  -2652611.592  -6347360.987
10 0 59901   2142.000000  0     268378.270  -3461065.585  -5957086.764
10 0 59901   2262.000000  0      54677.442  -4205906.363  -5462748.905
10 0 59901   2382.000000  0    -172334.213  -4873870.257  -4872894.365
10 0 59901   2502.000000  0    -407263.242  -5453086.717  -4197748.939
10 0 59901   2622.000000  0    -644376.246  -5933297.788  -3449050.427
10 0 59901   2742.000000  0    -877729.170  -6306050.585  -2639852.490
10 0 59901   2862.000000  0   -1101304.784  -6564858.615  -1784302.479
10 0 59901   2982.000000  0   -1309155.070  -6705328.076   -897394.889
10 0 59901   3102.000000  0   -1495544.851  -6725243.481      5294.792
10 0 59901   3222.000000  0   -1655093.320  -6624610.284    907889.629
10 0 59901   3342.000000  0   -1782910.076  -6405653.282   1794498.528
10 0 59901   3462.000000  0   -1874721.649  -6072770.026   2649505.340
10 0 59901   3582.000000  0   -1926984.873  -5632439.757   3457852.851
10 0 59901   3702.000000  0   -1936984.139  -5093090.757   4205314.591
10 0 59901   3822.000000  0   -1902910.044  -4464930.618   4878748.649
10 0 59901   3942.000000  0   -1823918.921  -3759744.631   5466329.605
10 0 59901   4062.000000  0   -1700171.290  -2990664.906   5957755.457
10 0 59901   4182.000000  0   -1532847.187  -2171916.950   6344422.978
10 0 59901   4302.000000  0   -1324139.534  -1318551.874   6619571.787
10 0 59901   4422.000000  0   -1077226.825   -446166.455   6778397.070
10 0 59901   4542.000000  0    -796225.470    429383.445   6818127.370
10 0 59901   4662.000000  0    -486121.343   1292270.044   6738070.246
10 0 59901   4782.000000  0    -152681.119   2126979.463   6539623.953
10 0 59901   4902.000000  0     197654.733   2918590.416   6226254.297
10 0 59901   5022.000000  0     557895.070   3653041.127   5803437.795
10 0 59901   5142.000000  0     920635.401   4317381.998   5278571.581
10 0 59901   5262.000000  0    1278207.823   4900008.725   4660849.974
10 0 59901   5382.000000  0    1622840.565   5390872.084   3961108.331
10 0 59901   5502.000000  0    1946823.762   5781658.932   3191638.498
10 0 59901   5622.000000  0    2242680.093   6065944.112   2365974.777
10 0 59901   5742.000000  0    2503332.357   6239304.759   1498652.134
10 0 59901   5862.000000  0    2722266.759   6299394.484    604944.323
10 0 59901   5982.000000  0    2893685.184   6245974.550   -299412.490
10 0 59901   6102.000000  0    3012644.780   6080903.972  -1198504.545
10 0 59901   6222.000000  0    3075180.940   5808087.094  -2076528.674
10 0 59901   6342.000000  0    3078410.128   5433381.015  -2918077.149
99
